BEIDOU-2 M4             
1 38251U 12018B   26137.51432167 -.00000055  00000+0  00000+0 0  9998
2 38251  55.6853 305.1252 0010929 280.3706  79.4822  1.86229518 95376
ARIRANG-3 (KOMPSAT-3)   
1 38338U 12025B   26138.12823120  .00000234  00000+0  55782-4 0  9993
2 38338  98.1155  96.1113 0004788 194.8241 165.2821 14.62177076746950
METOP-B                 
1 38771U 12049A   26138.20282691  .00000067  00000+0  50401-4 0  9998
2 38771  98.6524 190.2971 0003475  82.3440 277.8132 14.21423705709006
SJ-9A                   
1 38860U 12056A   26138.18863038  .00000932  00000+0  11375-3 0  9999
2 38860  97.6693 111.2309 0025576 359.8584   0.2620 14.85405065695133
COSMOS 2484 (RODNIK-S 6)
1 39059U 13001C   26138.20243734  .00000064  00000+0  38523-3 0  9999
2 39059  82.5033 240.5318 0027554  99.8103 260.6090 12.42938194604832
SARAL                   
1 39086U 13009A   26138.15329976  .00000039  00000+0  30210-4 0  9992
2 39086  98.5559 325.1010 0002394  42.8402 317.2968 14.32847983691303
STRAND-1                
1 39090U 13009E   26138.04883507  .00000162  00000+0  69049-4 0  9999
2 39090  98.3916 319.0265 0007896 328.4541  31.6172 14.37143901692732
BRITE-AUSTRIA           
1 39091U 13009F   26138.04876435  .00000100  00000+0  48741-4 0  9990
2 39091  98.3987 318.2318 0009615 336.8248  23.2504 14.36529055692721
GAOFEN-1                
1 39150U 13018A   26138.17758900  .00000783  00000+0  11933-3 0  9995
2 39150  97.9107 210.8528 0017154   7.9592 352.1887 14.76541420703816
NEE-01 PEGASO           
1 39151U 13018B   26137.64912235  .00001163  00000+0  11629-3 0  9995
2 39151  98.1183 280.8011 0011331 263.6771  96.3158 14.93494868706148
PROBA-V                 
1 39159U 13021A   26138.17777174  .00000031  00000+0  31803-4 0  9997
2 39159  98.3573 118.2690 0003463 205.4664 154.6345 14.23590111676840
ARIRANG-5 (KOMPSAT-5)   
1 39227U 13042A   26138.17079032  .00000867  00000+0  66268-4 0  9994
2 39227  97.6206 325.2935 0002097 207.7470 152.3644 15.04495254699344
GONETS-M 5              
1 39249U 13048A   26138.08960088  .00000092  00000+0  59714-3 0  9991
2 39249  82.4852   2.1496 0015697 280.4887  79.4424 12.42891244575144
GONETS-M 7              
1 39251U 13048C   26138.21409965  .00000098  00000+0  63944-3 0  9997
2 39251  82.4920   4.9783 0016523 281.5075  78.4149 12.42914072575117
FENGYUN 3C              
1 39260U 13052A   26138.21949519  .00000020  00000+0  30945-4 0  9997
2 39260  98.4965 113.4739 0015799 108.1007 252.1890 14.15747473654329
CASSIOPE                
1 39265U 13055A   26138.15430139  .00025512 -65131-6  28919-3 0  9995
2 39265  80.9143 103.1162 0300507 163.0939 198.0584 15.22821609663097
APRIZESAT 7             
1 39416U 13066A   26138.09906558  .00000782  00000+0  83005-4 0  9997
2 39416  97.7692  91.7565 0034714 312.9396  46.8911 14.91489860676749
ZACUBE-1 (TSHEPISOSAT)  
1 39417U 13066B   26138.14345683  .00003149  00000+0  24772-3 0  9995
2 39417  97.8123 100.3176 0041199 353.8882   6.1833 15.00938209676226
APRIZESAT 8             
1 39425U 13066K   26138.07507390  .00000703  00000+0  82103-4 0  9997
2 39425  97.8206  85.9681 0046697  26.8018 333.5596 14.87581317675198
TRITON-1                
1 39427U 13066M   26138.17551586  .00002631  00000+0  31953-3 0  9994
2 39427  97.8273  48.6664 0089596 333.2305  26.4297 14.81568135669646
