OBJECT_NAME,OBJECT_ID,EPOCH,MEAN_MOTION,ECCENTRICITY,INCLINATION,RA_OF_ASC_NODE,ARG_OF_PERICENTER,MEAN_ANOMALY,EPHEMERIS_TYPE,CLASSIFICATION_TYPE,NORAD_CAT_ID,ELEMENT_SET_NO,REV_AT_EPOCH,BSTAR,MEAN_MOTION_DOT,MEAN_MOTION_DDOT
BEIDOU-2 M4,2012-018B,2026-05-17T12:20:37.392288,1.86229518,.00109291,55.6853,305.1252,280.3706,79.4822,0,U,38251,999,9537,0,-.55E-6,0
ARIRANG-3 (KOMPSAT-3),2012-025B,2026-05-18T03:04:39.175680,14.62177076,.0004788,98.1155,96.1113,194.8241,165.2821,0,U,38338,999,74695,.55782E-4,.234E-5,0
METOP-B,2012-049A,2026-05-18T04:52:04.245024,14.21423705,.0003475,98.6524,190.2971,82.3440,277.8132,0,U,38771,999,70900,.50401E-4,.67E-6,0
SJ-9A,2012-056A,2026-05-18T04:31:37.664832,14.85405065,.0025576,97.6693,111.2309,359.8584,0.2620,0,U,38860,999,69513,.11375E-3,.932E-5,0
COSMOS 2484 (RODNIK-S 6),2013-001C,2026-05-18T04:51:30.586176,12.42938194,.0027554,82.5033,240.5318,99.8103,260.6090,0,U,39059,999,60483,.38523E-3,.64E-6,0
SARAL,2013-009A,2026-05-18T03:40:45.099264,14.32847983,.0002394,98.5559,325.1010,42.8402,317.2968,0,U,39086,999,69130,.3021E-4,.39E-6,0
STRAND-1,2013-009E,2026-05-18T01:10:19.350048,14.37143901,.0007896,98.3916,319.0265,328.4541,31.6172,0,U,39090,999,69273,.69049E-4,.162E-5,0
BRITE-AUSTRIA,2013-009F,2026-05-18T01:10:13.239840,14.36529055,.0009615,98.3987,318.2318,336.8248,23.2504,0,U,39091,999,69272,.48741E-4,.1E-5,0
GAOFEN-1,2013-018A,2026-05-18T04:15:43.689600,14.76541420,.0017154,97.9107,210.8528,7.9592,352.1887,0,U,39150,999,70381,.11933E-3,.783E-5,0
NEE-01 PEGASO,2013-018B,2026-05-17T15:34:44.171040,14.93494868,.00113315,98.1183,280.8011,263.6771,96.3158,0,U,39151,999,70614,.11629188E-3,.1163E-4,0
PROBA-V,2013-021A,2026-05-18T04:15:59.478336,14.23590111,.0003463,98.3573,118.2690,205.4664,154.6345,0,U,39159,999,67684,.31803E-4,.31E-6,0
ARIRANG-5 (KOMPSAT-5),2013-042A,2026-05-18T04:05:56.283648,15.04495254,.0002097,97.6206,325.2935,207.7470,152.3644,0,U,39227,999,69934,.66268E-4,.867E-5,0
GONETS-M 5,2013-048A,2026-05-18T02:09:01.516032,12.42891244,.0015697,82.4852,2.1496,280.4887,79.4424,0,U,39249,999,57514,.59714E-3,.92E-6,0
GONETS-M 7,2013-048C,2026-05-18T05:08:18.209760,12.42914072,.0016523,82.4920,4.9783,281.5075,78.4149,0,U,39251,999,57511,.63944E-3,.98E-6,0
FENGYUN 3C,2013-052A,2026-05-18T05:16:04.384416,14.15747473,.0015799,98.4965,113.4739,108.1007,252.1890,0,U,39260,999,65432,.30945E-4,.2E-6,0
CASSIOPE,2013-055A,2026-05-18T03:42:11.640096,15.22821609,.0300507,80.9143,103.1162,163.0939,198.0584,0,U,39265,999,66309,.28919E-3,.25512E-3,-.65131E-6
APRIZESAT 7,2013-066A,2026-05-18T02:22:39.266112,14.91489860,.0034714,97.7692,91.7565,312.9396,46.8911,0,U,39416,999,67674,.83005E-4,.782E-5,0
ZACUBE-1 (TSHEPISOSAT),2013-066B,2026-05-18T03:26:34.670112,15.00938209,.0041199,97.8123,100.3176,353.8882,6.1833,0,U,39417,999,67622,.24772E-3,.3149E-4,0
APRIZESAT 8,2013-066K,2026-05-18T01:48:06.384960,14.87581317,.0046697,97.8206,85.9681,26.8018,333.5596,0,U,39425,999,67519,.82103E-4,.703E-5,0
TRITON-1,2013-066M,2026-05-18T04:12:44.570304,14.81568135,.0089596,97.8273,48.6664,333.2305,26.4297,0,U,39427,999,66964,.31953E-3,.2631E-4,0
